COSMOS 2493 (SKRL-756 1)
1 39490U 13078A   26068.88109627  .00005252  00000+0  40276-3 0  9992
2 39490  82.4165 358.3033 0011855 214.7485 145.2966 15.01584319663059
STARLINK-36225          
1 67207U 25304R   26068.69187076  .00004536  00000+0  38756-3 0  9991
2 67207  70.0030 174.5024 0003352 265.5756  94.5020 14.98339003 13886
